KUIPER-00016            
1 63732U 25088J   25204.58336806  .00013592  00000+0  78152-3 0  9991
2 63732  51.8836  48.6001 0009919  46.1660 161.2889 15.12708265 13347
KUIPER-00018            
1 63733U 25088K   25204.25002315 -.00673482  00000+0 -21964-1 0  9990
2 63733  51.8692  46.1925 0006154  50.6102 331.7209 15.33629343 13358
KUIPER-00019            
1 63734U 25088L   25202.93565144  .00012739  00000+0  35569-3 0  9996
2 63734  51.8684  52.4255 0003864  63.9780 296.1604 15.37070975 13156
KUIPER-00020            
1 63735U 25088M   25204.25002315 -.00675480  00000+0 -25356-1 0  9991
2 63735  51.8746  46.7764 0007649  52.9352  32.0219 15.29138617 13557
KUIPER-00021            
1 63736U 25088N   25204.58336806  .00022871  00000+0  89859-3 0  9991
2 63736  51.8706  45.5620 0005365  71.0856 239.2140 15.25581901 13420
KUIPER-00023            
1 63737U 25088P   25204.58336806 -.00666486  00000+0 -29590-1 0  9994
2 63737  51.8735  46.1229 0009115  60.7963 344.3357 15.23572443 13726
KUIPER-00024            
1 63738U 25088Q   25203.84718197  .00015725  00000+0  41990-3 0  9992
2 63738  51.8708  47.3189 0001737  99.5532 260.5652 15.38271905 13776
KUIPER-00025            
1 63739U 25088R   25204.58336806 -.00599289  00000+0 -20395-1 0  9996
2 63739  51.8687  44.6873 0006092  54.9950 305.2092 15.32020866 13734
